{
  "type": "FeatureCollection",
  "features": [
    {
      "type": "Feature",
      "properties": {
        "norad_id": 30570,
        "name": "FENGYUN 1C DEB",
        "group": "fengyun-1c-debris",
        "lat": -71.99844439759414,
        "lon": 162.71743658973716,
        "alt_km": 828.129975907008,
        "timestamp": "2025-12-04T03:47:54.820600+00:00",
        "meta_object_name": "FENGYUN 1C DEB",
        "meta_object_id": "1999-025ALL",
        "meta_epoch": "2025-12-03T01:23:08.137248",
        "meta_mean_motion": 14.14240371,
        "meta_eccentricity": 0.00348545,
        "meta_inclination": 98.7164,
        "meta_ra_of_asc_node": 9.8151,
        "meta_arg_of_pericenter": 239.8553,
        "meta_mean_anomaly": 174.1728,
        "meta_ephemeris_type": 0,
        "meta_classification_type": "U",
        "meta_norad_cat_id": 30570,
        "meta_element_set_no": 999,
        "meta_rev_at_epoch": 96861,
        "meta_bstar": 0.00060139188,
        "meta_mean_motion_dot": 1.111e-05,
        "meta_mean_motion_ddot": 0,
        "tle_line1": "1 30570U 99025ALL 25337.05773307  .00001111  00000+0  60139-3 0  9997",
        "tle_line2": "2 30570  98.7164   9.8151 0034854 239.8553 174.1728 14.14240371968612"
      },
      "geometry": {
        "type": "Point",
        "coordinates": [
          162.71743658973716,
          -71.99844439759414
        ]
      }
    },
    {
      "type": "Feature",
      "properties": {
        "norad_id": 30571,
        "name": "FENGYUN 1C DEB",
        "group": "fengyun-1c-debris",
        "lat": -58.272395000685876,
        "lon": 19.00982963423262,
        "alt_km": 852.9609926382154,
        "timestamp": "2025-12-04T03:47:54.820611+00:00",
        "meta_object_name": "FENGYUN 1C DEB",
        "meta_object_id": "1999-025ALM",
        "meta_epoch": "2025-12-03T00:58:55.433568",
        "meta_mean_motion": 14.10680415,
        "meta_eccentricity": 0.00205226,
        "meta_inclination": 98.7323,
        "meta_ra_of_asc_node": 3.5304,
        "meta_arg_of_pericenter": 262.4195,
        "meta_mean_anomaly": 126.851,
        "meta_ephemeris_type": 0,
        "meta_classification_type": "U",
        "meta_norad_cat_id": 30571,
        "meta_element_set_no": 999,
        "meta_rev_at_epoch": 96750,
        "meta_bstar": 0.00031108636,
        "meta_mean_motion_dot": 5.14e-06,
        "meta_mean_motion_ddot": 0,
        "tle_line1": "1 30571U 99025ALM 25337.04091937  .00000514  00000+0  31109-3 0  9990",
        "tle_line2": "2 30571  98.7323   3.5304 0020522 262.4195 126.8510 14.10680415967505"
      },
      "geometry": {
        "type": "Point",
        "coordinates": [
          19.00982963423262,
          -58.272395000685876
        ]
      }
    },
    {
      "type": "Feature",
      "properties": {
        "norad_id": 30572,
        "name": "FENGYUN 1C DEB",
        "group": "fengyun-1c-debris",
        "lat": -77.72951315445216,
        "lon": 142.7737921128668,
        "alt_km": 862.0707981334717,
        "timestamp": "2025-12-04T03:47:54.820620+00:00",
        "meta_object_name": "FENGYUN 1C DEB",
        "meta_object_id": "1999-025ALN",
        "meta_epoch": "2025-12-03T01:14:57.329088",
        "meta_mean_motion": 14.08905542,
        "meta_eccentricity": 0.00214469,
        "meta_inclination": 98.7733,
        "meta_ra_of_asc_node": 6.9345,
        "meta_arg_of_pericenter": 322.0545,
        "meta_mean_anomaly": 91.8275,
        "meta_ephemeris_type": 0,
        "meta_classification_type": "U",
        "meta_norad_cat_id": 30572,
        "meta_element_set_no": 999,
        "meta_rev_at_epoch": 96625,
        "meta_bstar": 0.00035527739,
        "meta_mean_motion_dot": 5.72e-06,
        "meta_mean_motion_ddot": 0,
        "tle_line1": "1 30572U 99025ALN 25337.05205242  .00000572  00000+0  35528-3 0  9991",
        "tle_line2": "2 30572  98.7733   6.9345 0021446 322.0545  91.8275 14.08905542966259"
      },
      "geometry": {
        "type": "Point",
        "coordinates": [
          142.7737921128668,
          -77.72951315445216
        ]
      }
    },
    {
      "type": "Feature",
      "properties": {
        "norad_id": 30573,
        "name": "FENGYUN 1C DEB",
        "group": "fengyun-1c-debris",
        "lat": 40.27032526051935,
        "lon": 7.706000261948585,
        "alt_km": 857.0241041375739,
        "timestamp": "2025-12-04T03:47:54.820630+00:00",
        "meta_object_name": "FENGYUN 1C DEB",
        "meta_object_id": "1999-025ALP",
        "meta_epoch": "2025-12-03T02:23:31.818912",
        "meta_mean_motion": 14.1373185,
        "meta_eccentricity": 0.00879687,
        "meta_inclination": 99.2281,
        "meta_ra_of_asc_node": 14.5302,
        "meta_arg_of_pericenter": 301.0751,
        "meta_mean_anomaly": 114.2141,
        "meta_ephemeris_type": 0,
        "meta_classification_type": "U",
        "meta_norad_cat_id": 30573,
        "meta_element_set_no": 999,
        "meta_rev_at_epoch": 96061,
        "meta_bstar": 0.0022494501,
        "meta_mean_motion_dot": 4.367e-05,
        "meta_mean_motion_ddot": 0,
        "tle_line1": "1 30573U 99025ALP 25337.09967383  .00004367  00000+0  22495-2 0  9991",
        "tle_line2": "2 30573  99.2281  14.5302 0087968 301.0751 114.2141 14.13731850960610"
      },
      "geometry": {
        "type": "Point",
        "coordinates": [
          7.706000261948585,
          40.27032526051935
        ]
      }
    },
    {
      "type": "Feature",
      "properties": {
        "norad_id": 30574,
        "name": "FENGYUN 1C DEB",
        "group": "fengyun-1c-debris",
        "lat": 12.839263620138372,
        "lon": 139.78079663762037,
        "alt_km": 813.409096910922,
        "timestamp": "2025-12-04T03:47:54.820640+00:00",
        "meta_object_name": "FENGYUN 1C DEB",
        "meta_object_id": "1999-025ALQ",
        "meta_epoch": "2025-12-03T10:18:21.517344",
        "meta_mean_motion": 13.77454536,
        "meta_eccentricity": 0.0218593,
        "meta_inclination": 99.3024,
        "meta_ra_of_asc_node": 141.2077,
        "meta_arg_of_pericenter": 12.2569,
        "meta_mean_anomaly": 348.3782,
        "meta_ephemeris_type": 0,
        "meta_classification_type": "U",
        "meta_norad_cat_id": 30574,
        "meta_element_set_no": 999,
        "meta_rev_at_epoch": 93640,
        "meta_bstar": 0.0026326,
        "meta_mean_motion_dot": 3.082e-05,
        "meta_mean_motion_ddot": 0,
        "tle_line1": "1 30574U 99025ALQ 25337.42941571  .00003082  00000+0  26326-2 0  9990",
        "tle_line2": "2 30574  99.3024 141.2077 0218593  12.2569 348.3782 13.77454536936405"
      },
      "geometry": {
        "type": "Point",
        "coordinates": [
          139.78079663762037,
          12.839263620138372
        ]
      }
    },
    {
      "type": "Feature",
      "properties": {
        "norad_id": 30575,
        "name": "FENGYUN 1C DEB",
        "group": "fengyun-1c-debris",
        "lat": 20.866193310259053,
        "lon": 64.9421898631077,
        "alt_km": 777.2149047762223,
        "timestamp": "2025-12-04T03:47:54.820650+00:00",
        "meta_object_name": "FENGYUN 1C DEB",
        "meta_object_id": "1999-025ALR",
        "meta_epoch": "2025-12-03T04:38:15.724320",
        "meta_mean_motion": 14.39958595,
        "meta_eccentricity": 0.0053861,
        "meta_inclination": 99.171,
        "meta_ra_of_asc_node": 67.4401,
        "meta_arg_of_pericenter": 264.6453,
        "meta_mean_anomaly": 156.2864,
        "meta_ephemeris_type": 0,
        "meta_classification_type": "U",
        "meta_norad_cat_id": 30575,
        "meta_element_set_no": 999,
        "meta_rev_at_epoch": 98080,
        "meta_bstar": 0.00147,
        "meta_mean_motion_dot": 4.658e-05,
        "meta_mean_motion_ddot": 0,
        "tle_line1": "1 30575U 99025ALR 25337.19323755  .00004658  00000+0  14700-2 0  9996",
        "tle_line2": "2 30575  99.1710  67.4401 0053861 264.6453 156.2864 14.39958595980809"
      },
      "geometry": {
        "type": "Point",
        "coordinates": [
          64.9421898631077,
          20.866193310259053
        ]
      }
    },
    {
      "type": "Feature",
      "properties": {
        "norad_id": 30577,
        "name": "FENGYUN 1C DEB",
        "group": "fengyun-1c-debris",
        "lat": -62.37428495387033,
        "lon": 175.13106429486152,
        "alt_km": 853.5006031332905,
        "timestamp": "2025-12-04T03:47:54.820660+00:00",
        "meta_object_name": "FENGYUN 1C DEB",
        "meta_object_id": "1999-025ALT",
        "meta_epoch": "2025-12-03T01:15:32.895648",
        "meta_mean_motion": 14.11116303,
        "meta_eccentricity": 0.00286128,
        "meta_inclination": 98.7716,
        "meta_ra_of_asc_node": 11.2095,
        "meta_arg_of_pericenter": 310.5649,
        "meta_mean_anomaly": 78.9696,
        "meta_ephemeris_type": 0,
        "meta_classification_type": "U",
        "meta_norad_cat_id": 30577,
        "meta_element_set_no": 999,
        "meta_rev_at_epoch": 96648,
        "meta_bstar": 0.00062144234,
        "meta_mean_motion_dot": 1.08e-05,
        "meta_mean_motion_ddot": 0,
        "tle_line1": "1 30577U 99025ALT 25337.05246407  .00001080  00000+0  62144-3 0  9993",
        "tle_line2": "2 30577  98.7716  11.2095 0028612 310.5649  78.9696 14.11116303966486"
      },
      "geometry": {
        "type": "Point",
        "coordinates": [
          175.13106429486152,
          -62.37428495387033
        ]
      }
    }
  ]
}